{
  "norad_id": 41167,
  "name": "KENT RIDGE 1",
  "history": [
    {
      "epoch": "2026-03-28T19:10:44.952960Z",
      "apogee_km": 503.8243484867171,
      "perigee_km": 492.1539121732758,
      "latitude_deg": 1.7213375696140985e-05,
      "longitude_deg": 29.692764241651826,
      "height_km": 501.0354448383017,
      "semi_major_axis_km": 6876.126130329996,
      "eccentricity": 0.00084862,
      "inclination_deg": 14.9795,
      "raan_deg": 143.5944,
      "arg_perigee_deg": 185.2483,
      "mean_anomaly_deg": 174.7751,
      "mean_motion_rev_day": 15.22604154
    },
    {
      "epoch": "2026-03-30T05:46:02.364960Z",
      "apogee_km": 503.78472087276987,
      "perigee_km": 492.09813797412244,
      "latitude_deg": -8.548117149052446e-06,
      "longitude_deg": -141.25946646816823,
      "height_km": 500.4557779631261,
      "semi_major_axis_km": 6876.078429423446,
      "eccentricity": 0.0008498,
      "inclination_deg": 14.9795,
      "raan_deg": 132.8853,
      "arg_perigee_deg": 205.4024,
      "mean_anomaly_deg": 154.588,
      "mean_motion_rev_day": 15.22619998
    },
    {
      "epoch": "2026-03-30T07:20:22.217280Z",
      "apogee_km": 503.78555931177016,
      "perigee_km": 492.0930665846545,
      "latitude_deg": 4.13448560987849e-06,
      "longitude_deg": -165.39350444141047,
      "height_km": 500.41481716687036,
      "semi_major_axis_km": 6876.076312948212,
      "eccentricity": 0.00085023,
      "inclination_deg": 14.9795,
      "raan_deg": 132.3985,
      "arg_perigee_deg": 206.3349,
      "mean_anomaly_deg": 153.6541,
      "mean_motion_rev_day": 15.22620701
    }
  ]
}